[
    {
        "Altitude(m)": 605459.013007455,
        "Argument of Periapsis(deg)": 0.0,
        "Eccentricity": 0.0,
        "Inclination(deg)": 60.0,
        "Latitude(deg)": 27.98816273135892,
        "Longitude(deg)": -132.20137569880288,
        "Mean Anomaly(deg)": 32.72730000000001,
        "RAAN(deg)": 310.0,
        "Satellite Name": "Test1 1366",
        "Satellite Number": 1366,
        "Semi-Major Axis(m)": 6980739.136638005,
        "Time(s)": 0
    },
    {
        "Altitude(m)": 605535.8036923545,
        "Argument of Periapsis(deg)": 0.00010418945913296404,
        "Eccentricity": 0.0,
        "Inclination(deg)": 60.0,
        "Latitude(deg)": 28.501291778334227,
        "Longitude(deg)": -131.8444299355237,
        "Mean Anomaly(deg)": 33.34740614546182,
        "RAAN(deg)": 309.99957995086027,
        "Satellite Name": "Test1 1366",
        "Satellite Number": 1366,
        "Semi-Major Axis(m)": 6980739.136638005,
        "Time(s)": 10
    }
]